{"type": "FeatureCollection", "features": [ {"type": "Feature", "properties": {"norad_id": 34001, "name": "COSMOS 2251 DEB", "group": "cosmos-2251-debris", "lat": 25.151028211114593, "lon": -97.26916670952411, "alt_km": 758.1053231127435, "timestamp": "2025-12-27T04:40:45.898303+00:00", "meta": {"OBJECT_NAME": "COSMOS 2251 DEB", "OBJECT_ID": "1993-036GL", "EPOCH": "2025-12-26T23:37:32.870208", "MEAN_MOTION": 14.37114676, "ECCENTRICITY": 0.00205341, "INCLINATION": 74.0383, "RA_OF_ASC_NODE": 255.3951, "ARG_OF_PERICENTER": 333.6137, "MEAN_ANOMALY": 43.5772, "EPHEMERIS_TYPE": 0, "CLASSIFICATION_TYPE": "U", "NORAD_CAT_ID": 34001, "ELEMENT_SET_NO": 999, "REV_AT_EPOCH": 88351, "BSTAR": 0.00019085669, "MEAN_MOTION_DOT": 5.42e-06, "MEAN_MOTION_DDOT": 0}, "tle": {"line1": "1 34001U 93036GL  25360.98440822  .00000542  00000+0  19086-3 0  9999", "line2": "2 34001  74.0383 255.3951 0020534 333.6137  43.5772 14.37114676883518"}}, "geometry": {"type": "Point", "coordinates": [-97.26916670952411, 25.151028211114593]}}, {"type": "Feature", "properties": {"norad_id": 34003, "name": "COSMOS 2251 DEB", "group": "cosmos-2251-debris", "lat": 41.7263833911298, "lon": -84.43741740925886, "alt_km": 776.7808116567803, "timestamp": "2025-12-27T04:40:45.898313+00:00", "meta": {"OBJECT_NAME": "COSMOS 2251 DEB", "OBJECT_ID": "1993-036GN", "EPOCH": "2025-12-25T19:31:29.334144", "MEAN_MOTION": 13.84221361, "ECCENTRICITY": 0.02753646, "INCLINATION": 74.0775, "RA_OF_ASC_NODE": 263.1391, "ARG_OF_PERICENTER": 12.2095, "MEAN_ANOMALY": 348.5523, "EPHEMERIS_TYPE": 0, "CLASSIFICATION_TYPE": "U", "NORAD_CAT_ID": 34003, "ELEMENT_SET_NO": 999, "REV_AT_EPOCH": 84606, "BSTAR": 0.00186549, "MEAN_MOTION_DOT": 2.77e-05, "MEAN_MOTION_DDOT": 0}, "tle": {"line1": "1 34003U 93036GN  25359.81353396  .00002770  00000+0  18655-2 0  9995", "line2": "2 34003  74.0775 263.1391 0275364  12.2095 348.5523 13.84221361846068"}}, "geometry": {"type": "Point", "coordinates": [-84.43741740925886, 41.7263833911298]}}, {"type": "Feature", "properties": {"norad_id": 34004, "name": "COSMOS 2251 DEB", "group": "cosmos-2251-debris", "lat": 5.739835898447257, "lon": 104.35411361436668, "alt_km": 742.992104937236, "timestamp": "2025-12-27T04:40:45.898323+00:00", "meta": {"OBJECT_NAME": "COSMOS 2251 DEB", "OBJECT_ID": "1993-036GP", "EPOCH": "2025-12-26T21:14:56.993568", "MEAN_MOTION": 14.49137991, "ECCENTRICITY": 0.003342, "INCLINATION": 74.0355, "RA_OF_ASC_NODE": 286.5833, "ARG_OF_PERICENTER": 297.0253, "MEAN_ANOMALY": 62.7497, "EPHEMERIS_TYPE": 0, "CLASSIFICATION_TYPE": "U", "NORAD_CAT_ID": 34004, "ELEMENT_SET_NO": 999, "REV_AT_EPOCH": 88235, "BSTAR": 0.0014119428, "MEAN_MOTION_DOT": 5.384e-05, "MEAN_MOTION_DDOT": 0}, "tle": {"line1": "1 34004U 93036GP  25360.88538187  .00005384  00000+0  14119-2 0  9993", "line2": "2 34004  74.0355 286.5833 0033420 297.0253  62.7497 14.49137991882351"}}, "geometry": {"type": "Point", "coordinates": [104.35411361436668, 5.739835898447257]}}, {"type": "Feature", "properties": {"norad_id": 34005, "name": "COSMOS 2251 DEB", "group": "cosmos-2251-debris", "lat": -7.4023805796271, "lon": -175.19015362830277, "alt_km": 751.1596112227699, "timestamp": "2025-12-27T04:40:45.898333+00:00", "meta": {"OBJECT_NAME": "COSMOS 2251 DEB", "OBJECT_ID": "1993-036GQ", "EPOCH": "2025-12-26T15:42:50.283360", "MEAN_MOTION": 14.40313987, "ECCENTRICITY": 0.00212507, "INCLINATION": 74.0432, "RA_OF_ASC_NODE": 187.938, "ARG_OF_PERICENTER": 303.8564, "MEAN_ANOMALY": 128.3567, "EPHEMERIS_TYPE": 0, "CLASSIFICATION_TYPE": "U", "NORAD_CAT_ID": 34005, "ELEMENT_SET_NO": 999, "REV_AT_EPOCH": 88579, "BSTAR": 0.00011285546, "MEAN_MOTION_DOT": 3.32e-06, "MEAN_MOTION_DDOT": 0}, "tle": {"line1": "1 34005U 93036GQ  25360.65474865  .00000332  00000+0  11286-3 0  9992", "line2": "2 34005  74.0432 187.9380 0021250 303.8564 128.3567 14.40313987885798"}}, "geometry": {"type": "Point", "coordinates": [-175.19015362830277, -7.4023805796271]}}, {"type": "Feature", "properties": {"norad_id": 34006, "name": "COSMOS 2251 DEB", "group": "cosmos-2251-debris", "lat": -50.27163494329342, "lon": -45.719024723988596, "alt_km": 594.6135739391675, "timestamp": "2025-12-27T04:40:45.898344+00:00", "meta": {"OBJECT_NAME": "COSMOS 2251 DEB", "OBJECT_ID": "1993-036GR", "EPOCH": "2025-12-25T18:35:55.863168", "MEAN_MOTION": 14.95648156, "ECCENTRICITY": 0.00117121, "INCLINATION": 74.0532, "RA_OF_ASC_NODE": 117.0187, "ARG_OF_PERICENTER": 46.7358, "MEAN_ANOMALY": 103.407, "EPHEMERIS_TYPE": 0, "CLASSIFICATION_TYPE": "U", "NORAD_CAT_ID": 34006, "ELEMENT_SET_NO": 999, "REV_AT_EPOCH": 88863, "BSTAR": 0.0036326632, "MEAN_MOTION_DOT": 0.00040646, "MEAN_MOTION_DDOT": 0}, "tle": {"line1": "1 34006U 93036GR  25359.77495212  .00040646  00000+0  36327-2 0  9997", "line2": "2 34006  74.0532 117.0187 0011712  46.7358 103.4070 14.95648156888633"}}, "geometry": {"type": "Point", "coordinates": [-45.719024723988596, -50.27163494329342]}}, {"type": "Feature", "properties": {"norad_id": 34007, "name": "COSMOS 2251 DEB", "group": "cosmos-2251-debris", "lat": 28.36210812678182, "lon": -32.03240883569985, "alt_km": 659.918816105629, "timestamp": "2025-12-27T04:40:45.898354+00:00", "meta": {"OBJECT_NAME": "COSMOS 2251 DEB", "OBJECT_ID": "1993-036GS", "EPOCH": "2025-12-26T23:37:40.562400", "MEAN_MOTION": 14.6489157, "ECCENTRICITY": 0.00442572, "INCLINATION": 74.0198, "RA_OF_ASC_NODE": 319.4733, "ARG_OF_PERICENTER": 89.8113, "MEAN_ANOMALY": 270.8127, "EPHEMERIS_TYPE": 0, "CLASSIFICATION_TYPE": "U", "NORAD_CAT_ID": 34007, "ELEMENT_SET_NO": 999, "REV_AT_EPOCH": 89288, "BSTAR": 0.00094056138, "MEAN_MOTION_DOT": 5.073e-05, "MEAN_MOTION_DDOT": 0}, "tle": {"line1": "1 34007U 93036GS  25360.98449725  .00005073  00000+0  94056-3 0  9990", "line2": "2 34007  74.0198 319.4733 0044257  89.8113 270.8127 14.64891570892884"}}, "geometry": {"type": "Point", "coordinates": [-32.03240883569985, 28.36210812678182]}}, {"type": "Feature", "properties": {"norad_id": 34008, "name": "COSMOS 2251 DEB", "group": "cosmos-2251-debris", "lat": -62.0439309164551, "lon": 156.74239179664247, "alt_km": 776.7145118055223, "timestamp": "2025-12-27T04:40:45.898364+00:00", "meta": {"OBJECT_NAME": "COSMOS 2251 DEB", "OBJECT_ID": "1993-036GT", "EPOCH": "2025-12-26T22:47:41.779104", "MEAN_MOTION": 14.33156235, "ECCENTRICITY": 0.00246781, "INCLINATION": 74.035, "RA_OF_ASC_NODE": 304.5481, "ARG_OF_PERICENTER": 297.5323, "MEAN_ANOMALY": 124.8859, "EPHEMERIS_TYPE": 0, "CLASSIFICATION_TYPE": "U", "NORAD_CAT_ID": 34008, "ELEMENT_SET_NO": 999, "REV_AT_EPOCH": 88168, "BSTAR": 0.00014495007, "MEAN_MOTION_DOT": 3.73e-06, "MEAN_MOTION_DDOT": 0}, "tle": {"line1": "1 34008U 93036GT  25360.94978911  .00000373  00000+0  14495-3 0  9998", "line2": "2 34008  74.0350 304.5481 0024678 297.5323 124.8859 14.33156235881680"}}, "geometry": {"type": "Point", "coordinates": [156.74239179664247, -62.0439309164551]}}, {"type": "Feature", "properties": {"norad_id": 34009, "name": "COSMOS 2251 DEB", "group": "cosmos-2251-debris", "lat": -67.18582820622822, "lon": -92.35543245737388, "alt_km": 787.6316792840562, "timestamp": "2025-12-27T04:40:45.898374+00:00", "meta": {"OBJECT_NAME": "COSMOS 2251 DEB", "OBJECT_ID": "1993-036GU", "EPOCH": "2025-12-26T07:48:31.777056", "MEAN_MOTION": 14.33233263, "ECCENTRICITY": 0.0027046, "INCLINATION": 74.0378, "RA_OF_ASC_NODE": 312.1087, "ARG_OF_PERICENTER": 17.8871, "MEAN_ANOMALY": 103.9021, "EPHEMERIS_TYPE": 0, "CLASSIFICATION_TYPE": "U", "NORAD_CAT_ID": 34009, "ELEMENT_SET_NO": 999, "REV_AT_EPOCH": 88140, "BSTAR": 0.00016577, "MEAN_MOTION_DOT": 4.32e-06, "MEAN_MOTION_DDOT": 0}, "tle": {"line1": "1 34009U 93036GU  25360.32536779  .00000432  00000+0  16577-3 0  9992", "line2": "2 34009  74.0378 312.1087 0027046  17.8871 103.9021 14.33233263881407"}}, "geometry": {"type": "Point", "coordinates": [-92.35543245737388, -67.18582820622822]}}, {"type": "Feature", "properties": {"norad_id": 34010, "name": "COSMOS 2251 DEB", "group": "cosmos-2251-debris", "lat": -15.088476157497592, "lon": -111.49363546826963, "alt_km": 505.5643238178609, "timestamp": "2025-12-27T04:40:45.898384+00:00", "meta": {"OBJECT_NAME": "COSMOS 2251 DEB", "OBJECT_ID": "1993-036GV", "EPOCH": "2025-12-27T00:00:46.854720", "MEAN_MOTION": 15.21142707, "ECCENTRICITY": 0.00049316, "INCLINATION": 73.9959, "RA_OF_ASC_NODE": 253.3536, "ARG_OF_PERICENTER": 55.2174, "MEAN_ANOMALY": 304.9487, "EPHEMERIS_TYPE": 0, "CLASSIFICATION_TYPE": "U", "NORAD_CAT_ID": 34010, "ELEMENT_SET_NO": 999, "REV_AT_EPOCH": 89502, "BSTAR": 0.0047156642, "MEAN_MOTION_DOT": 0.00106593, "MEAN_MOTION_DDOT": 0}, "tle": {"line1": "1 34010U 93036GV  25361.00054230  .00106593  00000+0  47157-2 0  9999", "line2": "2 34010  73.9959 253.3536 0004931  55.2174 304.9487 15.21142707895029"}}, "geometry": {"type": "Point", "coordinates": [-111.49363546826963, -15.088476157497592]}}, {"type": "Feature", "properties": {"norad_id": 34011, "name": "COSMOS 2251 DEB", "group": "cosmos-2251-debris", "lat": 17.16656642206641, "lon": -51.595675702916054, "alt_km": 726.6785612317817, "timestamp": "2025-12-27T04:40:45.898394+00:00", "meta": {"OBJECT_NAME": "COSMOS 2251 DEB", "OBJECT_ID": "1993-036GW", "EPOCH": "2025-12-26T21:56:11.390208", "MEAN_MOTION": 14.41838751, "ECCENTRICITY": 0.00364394, "INCLINATION": 74.0146, "RA_OF_ASC_NODE": 303.8452, "ARG_OF_PERICENTER": 23.6527, "MEAN_ANOMALY": 336.6293, "EPHEMERIS_TYPE": 0, "CLASSIFICATION_TYPE": "U", "NORAD_CAT_ID": 34011, "ELEMENT_SET_NO": 999, "REV_AT_EPOCH": 88120, "BSTAR": 0.00094730599, "MEAN_MOTION_DOT": 3.097e-05, "MEAN_MOTION_DDOT": 0}, "tle": {"line1": "1 34011U 93036GW  25360.91402072  .00003097  00000+0  94731-3 0  9996", "line2": "2 34011  74.0146 303.8452 0036439  23.6527 336.6293 14.41838751881201"}}, "geometry": {"type": "Point", "coordinates": [-51.595675702916054, 17.16656642206641]}}]}